stk.v.4.3 

BEGIN Ephemeris 
 
NumberOfEphemerisPoints		146 
ScenarioEpoch	    2 Jan 2020 13:52:35.246199667 
InterpolationMethod		Lagrange 
InterpolationOrder		5 
CentralBody				Earth 
CoordinateSystem			TEME 
CoordinateSystemEpoch	  2 Jan 2020 13:52:35.246199667 
DistanceUnit			Kilometers 
 
EphemerisTimePosVel 
 
       0.00000000   -4862.67435462   -5253.89862466       0.03390728  0.350379235 -0.311278441  7.448761048
 END Ephemeris 
